{
  "norad_id": 60333,
  "name": "STARLINK-32133",
  "history": [
    {
      "epoch": "2026-03-28T17:05:26.017152Z",
      "apogee_km": 476.17523606442046,
      "perigee_km": 474.23861813750045,
      "latitude_deg": 2.7442394610430408e-05,
      "longitude_deg": -94.93830458137471,
      "height_km": 476.11560477850185,
      "semi_major_axis_km": 6853.34392710096,
      "eccentricity": 0.00014129,
      "inclination_deg": 53.1629,
      "raan_deg": 347.5487,
      "arg_perigee_deg": 90.6208,
      "mean_anomaly_deg": 269.4955,
      "mean_motion_rev_day": 15.30202727
    },
    {
      "epoch": "2026-03-29T00:55:42.220704Z",
      "apogee_km": 476.1042239164117,
      "perigee_km": 474.3840252541404,
      "latitude_deg": -4.306926985079903e-05,
      "longitude_deg": 145.65463957929208,
      "height_km": 476.16038398198134,
      "semi_major_axis_km": 6853.381124585276,
      "eccentricity": 0.0001255,
      "inclination_deg": 53.1625,
      "raan_deg": 346.0311,
      "arg_perigee_deg": 91.192,
      "mean_anomaly_deg": 268.9224,
      "mean_motion_rev_day": 15.30190269
    },
    {
      "epoch": "2026-03-30T02:00:33.236064Z",
      "apogee_km": 475.8988376035886,
      "perigee_km": 474.58161850035776,
      "latitude_deg": -2.689821265976497e-05,
      "longitude_deg": 123.55435481105484,
      "height_km": 476.5467511197416,
      "semi_major_axis_km": 6853.377228051973,
      "eccentricity": 9.61e-05,
      "inclination_deg": 53.1613,
      "raan_deg": 341.1734,
      "arg_perigee_deg": 128.2374,
      "mean_anomaly_deg": 231.8713,
      "mean_motion_rev_day": 15.30191574
    },
    {
      "epoch": "2026-03-30T02:00:33.236928Z",
      "apogee_km": 475.8986320022723,
      "perigee_km": 474.581824101675,
      "latitude_deg": -2.472139655605223e-05,
      "longitude_deg": 123.55435282294208,
      "height_km": 476.5466238706524,
      "semi_major_axis_km": 6853.377228051973,
      "eccentricity": 9.607e-05,
      "inclination_deg": 53.1613,
      "raan_deg": 341.1734,
      "arg_perigee_deg": 128.2374,
      "mean_anomaly_deg": 231.8713,
      "mean_motion_rev_day": 15.30191574
    },
    {
      "epoch": "2026-03-30T20:49:11.726112Z",
      "apogee_km": 475.89308471866934,
      "perigee_km": 474.58271943739146,
      "latitude_deg": 3.34965093278318e-05,
      "longitude_deg": -163.01920214508397,
      "height_km": 476.5661828566952,
      "semi_major_axis_km": 6853.37490207803,
      "eccentricity": 9.56e-05,
      "inclination_deg": 53.161,
      "raan_deg": 337.5327,
      "arg_perigee_deg": 130.9473,
      "mean_anomaly_deg": 229.1611,
      "mean_motion_rev_day": 15.30192353
    },
    {
      "epoch": "2026-03-31T09:21:37.452384Z",
      "apogee_km": 476.20337004789417,
      "perigee_km": 474.2590694839455,
      "latitude_deg": 1.2656664478109562e-05,
      "longitude_deg": 5.935571035907298,
      "height_km": 476.001486206373,
      "semi_major_axis_km": 6853.368219765919,
      "eccentricity": 0.00014185,
      "inclination_deg": 53.1616,
      "raan_deg": 335.1097,
      "arg_perigee_deg": 82.4465,
      "mean_anomaly_deg": 277.6697,
      "mean_motion_rev_day": 15.30194591
    },
    {
      "epoch": "2026-04-01T01:02:09.695328Z",
      "apogee_km": 476.2499789525191,
      "perigee_km": 474.228781190508,
      "latitude_deg": -3.8373665969515564e-05,
      "longitude_deg": 127.12371336559364,
      "height_km": 476.0848827514689,
      "semi_major_axis_km": 6853.376380071513,
      "eccentricity": 0.00014746,
      "inclination_deg": 53.1619,
      "raan_deg": 332.076,
      "arg_perigee_deg": 87.0222,
      "mean_anomaly_deg": 273.0947,
      "mean_motion_rev_day": 15.30191858
    },
    {
      "epoch": "2026-04-02T20:55:38.500032Z",
      "apogee_km": 476.07547420834,
      "perigee_km": 474.34294828613565,
      "latitude_deg": -1.004140995494886e-05,
      "longitude_deg": 178.4581635981638,
      "height_km": 476.17604463470775,
      "semi_major_axis_km": 6853.346211247237,
      "eccentricity": 0.0001264,
      "inclination_deg": 53.1599,
      "raan_deg": 323.583,
      "arg_perigee_deg": 94.5523,
      "mean_anomaly_deg": 265.5622,
      "mean_motion_rev_day": 15.30201962
    },
    {
      "epoch": "2026-04-02T22:29:41.368704Z",
      "apogee_km": 476.02790378093596,
      "perigee_km": 474.36638145140023,
      "latitude_deg": 2.6924191543409167e-05,
      "longitude_deg": 154.5786649457981,
      "height_km": 476.2670503015571,
      "semi_major_axis_km": 6853.334142616168,
      "eccentricity": 0.00012122,
      "inclination_deg": 53.1594,
      "raan_deg": 323.2798,
      "arg_perigee_deg": 101.9339,
      "mean_anomaly_deg": 258.1798,
      "mean_motion_rev_day": 15.30206004
    },
    {
      "epoch": "2026-04-03T20:26:27.006144Z",
      "apogee_km": 476.1004224775161,
      "perigee_km": 474.42408102053923,
      "latitude_deg": 1.2810988084116178e-05,
      "longitude_deg": -179.7599922106685,
      "height_km": 476.17039937976824,
      "semi_major_axis_km": 6853.399251749028,
      "eccentricity": 0.0001223,
      "inclination_deg": 53.1592,
      "raan_deg": 319.0326,
      "arg_perigee_deg": 90.6906,
      "mean_anomaly_deg": 269.4235,
      "mean_motion_rev_day": 15.30184198
    },
    {
      "epoch": "2026-04-04T21:31:17.952384Z",
      "apogee_km": 475.8336731073432,
      "perigee_km": 474.68230274937196,
      "latitude_deg": 9.808098442086468e-06,
      "longitude_deg": 158.14209607788987,
      "height_km": 476.072005234082,
      "semi_major_axis_km": 6853.394987928357,
      "eccentricity": 8.4e-05,
      "inclination_deg": 53.1576,
      "raan_deg": 314.177,
      "arg_perigee_deg": 81.5713,
      "mean_anomaly_deg": 278.5383,
      "mean_motion_rev_day": 15.30185626
    },
    {
      "epoch": "2026-04-05T00:39:24.343776Z",
      "apogee_km": 475.80315023559615,
      "perigee_km": 474.71428272416233,
      "latitude_deg": 3.032306136636143e-05,
      "longitude_deg": 110.37992607644397,
      "height_km": 476.1335288038878,
      "semi_major_axis_km": 6853.395716479879,
      "eccentricity": 7.944e-05,
      "inclination_deg": 53.1577,
      "raan_deg": 313.5702,
      "arg_perigee_deg": 87.511,
      "mean_anomaly_deg": 272.5982,
      "mean_motion_rev_day": 15.30185382
    },
    {
      "epoch": "2026-04-05T21:02:05.870976Z",
      "apogee_km": 475.841470630754,
      "perigee_km": 474.5708608078312,
      "latitude_deg": -7.100761316556194e-05,
      "longitude_deg": 159.9261160368139,
      "height_km": 476.087220313001,
      "semi_major_axis_km": 6853.343165719292,
      "eccentricity": 9.27e-05,
      "inclination_deg": 53.1583,
      "raan_deg": 309.6264,
      "arg_perigee_deg": 88.4385,
      "mean_anomaly_deg": 271.6721,
      "mean_motion_rev_day": 15.30202982
    },
    {
      "epoch": "2026-04-06T00:10:12.143136Z",
      "apogee_km": 475.8277718747231,
      "perigee_km": 474.5556569987493,
      "latitude_deg": -2.175490923115865e-06,
      "longitude_deg": 112.16438010408373,
      "height_km": 476.07671857947014,
      "semi_major_axis_km": 6853.328714436736,
      "eccentricity": 9.281e-05,
      "inclination_deg": 53.1583,
      "raan_deg": 309.0195,
      "arg_perigee_deg": 88.7971,
      "mean_anomaly_deg": 271.3136,
      "mean_motion_rev_day": 15.30207822
    },
    {
      "epoch": "2026-04-06T23:41:00.043584Z",
      "apogee_km": 475.8687057679035,
      "perigee_km": 474.54135048389526,
      "latitude_deg": 5.536491951170653e-06,
      "longitude_deg": 113.94774106793663,
      "height_km": 475.95763064484305,
      "semi_major_axis_km": 6853.342028125899,
      "eccentricity": 9.684e-05,
      "inclination_deg": 53.1591,
      "raan_deg": 304.4681,
      "arg_perigee_deg": 77.3079,
      "mean_anomaly_deg": 282.803,
      "mean_motion_rev_day": 15.30203363
    },
    {
      "epoch": "2026-04-07T20:03:41.544000Z",
      "apogee_km": 475.9507039987666,
      "perigee_km": 474.48381205337955,
      "latitude_deg": -2.5331420914586305e-07,
      "longitude_deg": 163.49361315791828,
      "height_km": 475.9743728935034,
      "semi_major_axis_km": 6853.354258026073,
      "eccentricity": 0.00010702,
      "inclination_deg": 53.1579,
      "raan_deg": 300.5238,
      "arg_perigee_deg": 78.9135,
      "mean_anomaly_deg": 281.1986,
      "mean_motion_rev_day": 15.30199267
    },
    {
      "epoch": "2026-04-09T19:05:17.523744Z",
      "apogee_km": 475.9661502243571,
      "perigee_km": 474.49267644549036,
      "latitude_deg": 4.711747918643142e-05,
      "longitude_deg": 167.06261062589152,
      "height_km": 475.93180141843027,
      "semi_major_axis_km": 6853.366413334924,
      "eccentricity": 0.0001075,
      "inclination_deg": 53.1601,
      "raan_deg": 291.424,
      "arg_perigee_deg": 74.5706,
      "mean_anomaly_deg": 285.5414,
      "mean_motion_rev_day": 15.30195196
    },
    {
      "epoch": "2026-04-10T06:03:39.836160Z",
      "apogee_km": 475.99718841426875,
      "perigee_km": 474.4546334902716,
      "latitude_deg": 2.110072750193434e-05,
      "longitude_deg": -0.10411789024602164,
      "height_km": 475.9138518428523,
      "semi_major_axis_km": 6853.36291095227,
      "eccentricity": 0.00011254,
      "inclination_deg": 53.1604,
      "raan_deg": 289.3009,
      "arg_perigee_deg": 74.167,
      "mean_anomaly_deg": 285.9455,
      "mean_motion_rev_day": 15.30196369
    },
    {
      "epoch": "2026-04-11T11:50:40.674048Z",
      "apogee_km": 476.03966180553107,
      "perigee_km": 474.44282467485573,
      "latitude_deg": -5.834678237072801e-05,
      "longitude_deg": -93.84683842801536,
      "height_km": 476.2094499064866,
      "semi_major_axis_km": 6853.378243240193,
      "eccentricity": 0.0001165,
      "inclination_deg": 53.1603,
      "raan_deg": 283.5349,
      "arg_perigee_deg": 95.0259,
      "mean_anomaly_deg": 265.0874,
      "mean_motion_rev_day": 15.30191234
    }
  ]
}